ORBCOMM FM103           
1 40091U 14040F   25058.82039438  .00002304  00000+0  53459-3 0  9997
2 40091  47.0041 174.2018 0001765 173.4841 186.6068 14.57860464548144
ORBCOMM FM114           
1 41179U 15081A   25058.50302570  .00002035  00000+0  47596-3 0  9992
2 41179  47.0013  84.8150 0002682 232.9576 127.1064 14.57911588488467
ORBCOMM FM119           
1 41180U 15081B   25058.89669214  .00002510  00000+0  57953-3 0  9993
2 41180  47.0016 352.2287 0001730 283.8778  76.1915 14.57838682489773
ORBCOMM FM105           
1 41181U 15081C   25058.50141581  .00001106  00000+0  35858-3 0  9994
2 41181  47.0032 348.4347 0001615 212.1082 147.9700 14.45058612484881
ORBCOMM FM110           
1 41182U 15081D   25058.75279279  .00002229  00000+0  51808-3 0  9998
2 41182  47.0007  83.0039 0002518 333.1543  26.9212 14.57902051488373
ORBCOMM FM118           
1 41183U 15081E   25058.53101098  .00002400  00000+0  55584-3 0  9994
2 41183  47.0031  84.4889 0003014 331.8906  28.1816 14.57824887488441
ORBCOMM FM112           
1 41184U 15081F   25058.87322956  .00003407  00000+0  77302-3 0  9990
2 41184  46.9998 351.5071 0001261 263.5007  96.5735 14.57852563489710
ORBCOMM FM113           
1 41185U 15081G   25058.85005682  .00003214  00000+0  73151-3 0  9997
2 41185  47.0017 351.9247 0001407 275.5514  84.5211 14.57840698489691
